{
    "links": {
        "self": "http://www.neowsapp.com/rest/v1/neo/3843569?api_key=iIulBulltgU6a56xZRHN4H3l9WmuAYTsLGpBGhQ2"
    },
    "id": "3843569",
    "neo_reference_id": "3843569",
    "name": "(2019 QD)",
    "designation": "2019 QD",
    "nasa_jpl_url": "http://ssd.jpl.nasa.gov/sbdb.cgi?sstr=3843569",
    "absolute_magnitude_h": 28.8,
    "estimated_diameter": {
        "kilometers": {
            "estimated_diameter_min": 0.0046190746,
            "estimated_diameter_max": 0.0103285648
        },
        "meters": {
            "estimated_diameter_min": 4.6190746028,
            "estimated_diameter_max": 10.328564805
        },
        "miles": {
            "estimated_diameter_min": 0.002870159,
            "estimated_diameter_max": 0.0064178706
        },
        "feet": {
            "estimated_diameter_min": 15.1544447199,
            "estimated_diameter_max": 33.886368555
        }
    },
    "is_potentially_hazardous_asteroid": false,
    "close_approach_data": [
        {
            "close_approach_date": "2017-11-13",
            "close_approach_date_full": "2017-Nov-13 07:56",
            "epoch_date_close_approach": 1510559760000,
            "relative_velocity": {
                "kilometers_per_second": "4.1753723216",
                "kilometers_per_hour": "15031.3403578134",
                "miles_per_hour": "9339.8903462202"
            },
            "miss_distance": {
                "astronomical": "1.5729670461",
                "lunar": "611.8841809329",
                "kilometers": "235312519.676751807",
                "miles": "146216419.5816646566"
            },
            "orbiting_body": "Juptr"
        },
        {
            "close_approach_date": "2019-08-22",
            "close_approach_date_full": "2019-Aug-22 01:28",
            "epoch_date_close_approach": 1566437280000,
            "relative_velocity": {
                "kilometers_per_second": "15.1028387796",
                "kilometers_per_hour": "54370.2196064146",
                "miles_per_hour": "33783.5400659969"
            },
            "miss_distance": {
                "astronomical": "0.0020045647",
                "lunar": "0.7797756683",
                "kilometers": "299878.609397189",
                "miles": "186335.9273676482"
            },
            "orbiting_body": "Earth"
        },
        {
            "close_approach_date": "2019-08-22",
            "close_approach_date_full": "2019-Aug-22 01:39",
            "epoch_date_close_approach": 1566437940000,
            "relative_velocity": {
                "kilometers_per_second": "14.1307442365",
                "kilometers_per_hour": "50870.6792514122",
                "miles_per_hour": "31609.0617826345"
            },
            "miss_distance": {
                "astronomical": "0.0016108015",
                "lunar": "0.6266017835",
                "kilometers": "240972.473392805",
                "miles": "149733.351738509"
            },
            "orbiting_body": "Moon"
        },
        {
            "close_approach_date": "2045-01-05",
            "close_approach_date_full": "2045-Jan-05 06:12",
            "epoch_date_close_approach": 2367209520000,
            "relative_velocity": {
                "kilometers_per_second": "23.7283896164",
                "kilometers_per_hour": "85422.2026189288",
                "miles_per_hour": "53078.034732856"
            },
            "miss_distance": {
                "astronomical": "0.2848789989",
                "lunar": "110.8179305721",
                "kilometers": "42617291.443172343",
                "miles": "26481156.9552226134"
            },
            "orbiting_body": "Earth"
        },
        {
            "close_approach_date": "2123-12-26",
            "close_approach_date_full": "2123-Dec-26 13:35",
            "epoch_date_close_approach": 4859271300000,
            "relative_velocity": {
                "kilometers_per_second": "17.2643001731",
                "kilometers_per_hour": "62151.4806232118",
                "miles_per_hour": "38618.5130572396"
            },
            "miss_distance": {
                "astronomical": "0.0768528697",
                "lunar": "29.8957663133",
                "kilometers": "11497025.610507539",
                "miles": "7143920.4463764782"
            },
            "orbiting_body": "Earth"
        }
    ],
    "orbital_data": {
        "orbit_id": "1",
        "orbit_determination_date": "2019-08-21 18:42:03",
        "first_observation_date": "2019-08-21",
        "last_observation_date": "2019-08-21",
        "data_arc_in_days": null,
        "observations_used": 20,
        "orbit_uncertainty": "7",
        "minimum_orbit_intersection": ".00098027",
        "jupiter_tisserand_invariant": "3.230",
        "epoch_osculation": "2459000.5",
        "eccentricity": ".6533267954774979",
        "semi_major_axis": "2.35006720464853",
        "inclination": "2.993302334136774",
        "ascending_node_longitude": "149.7115706744235",
        "orbital_period": "1315.887767568151",
        "perihelion_distance": ".8147053286787445",
        "perihelion_argument": "238.3306372245344",
        "aphelion_distance": "3.885429080618315",
        "perihelion_time": "2458757.791923790718",
        "mean_anomaly": "66.39996935059003",
        "mean_motion": ".2735795626896845",
        "equinox": "J2000",
        "orbit_class": {
            "orbit_class_type": "APO",
            "orbit_class_description": "Near-Earth asteroid orbits which cross the Earth’s orbit similar to that of 1862 Apollo",
            "orbit_class_range": "a (semi-major axis) > 1.0 AU; q (perihelion) < 1.017 AU"
        }
    },
    "is_sentry_object": false
}